CCSDS_OMM_VERS = 2.0
CREATION_DATE  = 
ORIGINATOR     = 

OBJECT_NAME    = COSMOS 2151
OBJECT_ID      = 1991-042A
CENTER_NAME    = EARTH
REF_FRAME      = TEME
TIME_SYSTEM    = UTC
MEAN_ELEMENT_THEORY = SGP/SGP4

EPOCH          = 2025-11-20T04:53:12.409440
MEAN_MOTION    = 14.99574577
ECCENTRICITY   = .00141027
INCLINATION    = 82.4976
RA_OF_ASC_NODE = 189.2171
ARG_OF_PERICENTER = 71.0947
MEAN_ANOMALY   = 289.1805

EPHEMERIS_TYPE = 0
CLASSIFICATION_TYPE = U
NORAD_CAT_ID   = 21422
ELEMENT_SET_NO = 999
REV_AT_EPOCH   = 84678
BSTAR          = .11371472E-3
MEAN_MOTION_DOT = .1428E-4
MEAN_MOTION_DDOT = 0

CCSDS_OMM_VERS = 2.0
CREATION_DATE  = 
ORIGINATOR     = 

OBJECT_NAME    = SL-14 R/B
OBJECT_ID      = 1991-042B
CENTER_NAME    = EARTH
REF_FRAME      = TEME
TIME_SYSTEM    = UTC
MEAN_ELEMENT_THEORY = SGP/SGP4

EPOCH          = 2025-11-20T07:03:45.773856
MEAN_MOTION    = 14.81709316
ECCENTRICITY   = .0015678
INCLINATION    = 82.4914
RA_OF_ASC_NODE = 322.7743
ARG_OF_PERICENTER = 237.8217
MEAN_ANOMALY   = 122.1477

EPHEMERIS_TYPE = 0
CLASSIFICATION_TYPE = U
NORAD_CAT_ID   = 21423
ELEMENT_SET_NO = 999
REV_AT_EPOCH   = 83687
BSTAR          = .60681663E-4
MEAN_MOTION_DOT = .502E-5
MEAN_MOTION_DDOT = 0

CCSDS_OMM_VERS = 2.0
CREATION_DATE  = 
ORIGINATOR     = 

OBJECT_NAME    = ERS-1
OBJECT_ID      = 1991-050A
CENTER_NAME    = EARTH
REF_FRAME      = TEME
TIME_SYSTEM    = UTC
MEAN_ELEMENT_THEORY = SGP/SGP4

EPOCH          = 2025-11-20T00:07:37.151040
MEAN_MOTION    = 14.39340039
ECCENTRICITY   = .0032269
INCLINATION    = 98.7915
RA_OF_ASC_NODE = 334.4903
ARG_OF_PERICENTER = 165.9198
MEAN_ANOMALY   = 194.2896

EPHEMERIS_TYPE = 0
CLASSIFICATION_TYPE = U
NORAD_CAT_ID   = 21574
ELEMENT_SET_NO = 999
REV_AT_EPOCH   = 79995
BSTAR          = .13324628E-3
MEAN_MOTION_DOT = .37E-5
MEAN_MOTION_DDOT = 0

CCSDS_OMM_VERS = 2.0
CREATION_DATE  = 
ORIGINATOR     = 

OBJECT_NAME    = ARIANE 40 R/B
OBJECT_ID      = 1991-050F
CENTER_NAME    = EARTH
REF_FRAME      = TEME
TIME_SYSTEM    = UTC
MEAN_ELEMENT_THEORY = SGP/SGP4

EPOCH          = 2025-11-20T02:36:56.023200
MEAN_MOTION    = 14.42786273
ECCENTRICITY   = .00040308
INCLINATION    = 98.2199
RA_OF_ASC_NODE = 15.3532
ARG_OF_PERICENTER = 60.0013
MEAN_ANOMALY   = 300.1577

EPHEMERIS_TYPE = 0
CLASSIFICATION_TYPE = U
NORAD_CAT_ID   = 21610
ELEMENT_SET_NO = 999
REV_AT_EPOCH   = 80319
BSTAR          = .13232062E-3
MEAN_MOTION_DOT = .399E-5
MEAN_MOTION_DDOT = 0

CCSDS_OMM_VERS = 2.0
CREATION_DATE  = 
ORIGINATOR     = 

OBJECT_NAME    = INTERCOSMOS 25
OBJECT_ID      = 1991-086A
CENTER_NAME    = EARTH
REF_FRAME      = TEME
TIME_SYSTEM    = UTC
MEAN_ELEMENT_THEORY = SGP/SGP4

EPOCH          = 2025-11-20T06:15:57.987648
MEAN_MOTION    = 12.11628754
ECCENTRICITY   = .14877712
INCLINATION    = 82.6083
RA_OF_ASC_NODE = 16.1659
ARG_OF_PERICENTER = 352.8645
MEAN_ANOMALY   = 5.3166

EPHEMERIS_TYPE = 0
CLASSIFICATION_TYPE = U
NORAD_CAT_ID   = 21819
ELEMENT_SET_NO = 999
REV_AT_EPOCH   = 48343
BSTAR          = .28758108E-3
MEAN_MOTION_DOT = .1467E-4
MEAN_MOTION_DDOT = 0

CCSDS_OMM_VERS = 2.0
CREATION_DATE  = 
ORIGINATOR     = 

OBJECT_NAME    = SL-8 R/B
OBJECT_ID      = 1992-008B
CENTER_NAME    = EARTH
REF_FRAME      = TEME
TIME_SYSTEM    = UTC
MEAN_ELEMENT_THEORY = SGP/SGP4

EPOCH          = 2025-11-20T03:16:38.313120
MEAN_MOTION    = 13.75951973
ECCENTRICITY   = .003611
INCLINATION    = 82.9273
RA_OF_ASC_NODE = 349.2603
ARG_OF_PERICENTER = 81.2281
MEAN_ANOMALY   = 338.5656

EPHEMERIS_TYPE = 0
CLASSIFICATION_TYPE = U
NORAD_CAT_ID   = 21876
ELEMENT_SET_NO = 999
REV_AT_EPOCH   = 69435
BSTAR          = .12494177E-3
MEAN_MOTION_DOT = .137E-5
MEAN_MOTION_DDOT = 0

CCSDS_OMM_VERS = 2.0
CREATION_DATE  = 
ORIGINATOR     = 

OBJECT_NAME    = SL-8 R/B
OBJECT_ID      = 1992-020B
CENTER_NAME    = EARTH
REF_FRAME      = TEME
TIME_SYSTEM    = UTC
MEAN_ELEMENT_THEORY = SGP/SGP4

EPOCH          = 2025-11-20T05:45:02.035296
MEAN_MOTION    = 13.75522999
ECCENTRICITY   = .00277262
INCLINATION    = 82.9316
RA_OF_ASC_NODE = 235.0236
ARG_OF_PERICENTER = 242.5847
MEAN_ANOMALY   = 282.0914

EPHEMERIS_TYPE = 0
CLASSIFICATION_TYPE = U
NORAD_CAT_ID   = 21938
ELEMENT_SET_NO = 999
REV_AT_EPOCH   = 68608
BSTAR          = .75661536E-4
MEAN_MOTION_DOT = .88E-6
MEAN_MOTION_DDOT = 0

CCSDS_OMM_VERS = 2.0
CREATION_DATE  = 
ORIGINATOR     = 

OBJECT_NAME    = USA 81
OBJECT_ID      = 1992-023A
CENTER_NAME    = EARTH
REF_FRAME      = TEME
TIME_SYSTEM    = UTC
MEAN_ELEMENT_THEORY = SGP/SGP4

EPOCH          = 2025-11-20T04:33:19.648800
MEAN_MOTION    = 14.32315625
ECCENTRICITY   = .00024123
INCLINATION    = 85.0102
RA_OF_ASC_NODE = 194.5792
ARG_OF_PERICENTER = 70.0221
MEAN_ANOMALY   = 290.1231

EPHEMERIS_TYPE = 0
CLASSIFICATION_TYPE = U
NORAD_CAT_ID   = 21949
ELEMENT_SET_NO = 999
REV_AT_EPOCH   = 7911
BSTAR          = .74584338E-4
MEAN_MOTION_DOT = .221E-5
MEAN_MOTION_DDOT = 0

CCSDS_OMM_VERS = 2.0
CREATION_DATE  = 
ORIGINATOR     = 

OBJECT_NAME    = COSMOS 2219
OBJECT_ID      = 1992-076A
CENTER_NAME    = EARTH
REF_FRAME      = TEME
TIME_SYSTEM    = UTC
MEAN_ELEMENT_THEORY = SGP/SGP4

EPOCH          = 2025-11-20T05:30:31.361760
MEAN_MOTION    = 14.14067556
ECCENTRICITY   = .00181703
INCLINATION    = 71.0609
RA_OF_ASC_NODE = 246.8851
ARG_OF_PERICENTER = 358.8605
MEAN_ANOMALY   = 1.2473

EPHEMERIS_TYPE = 0
CLASSIFICATION_TYPE = U
NORAD_CAT_ID   = 22219
ELEMENT_SET_NO = 999
REV_AT_EPOCH   = 70290
BSTAR          = -.28986672E-4
MEAN_MOTION_DOT = -.102E-5
MEAN_MOTION_DDOT = 0

CCSDS_OMM_VERS = 2.0
CREATION_DATE  = 
ORIGINATOR     = 

OBJECT_NAME    = SL-16 R/B
OBJECT_ID      = 1992-076B
CENTER_NAME    = EARTH
REF_FRAME      = TEME
TIME_SYSTEM    = UTC
MEAN_ELEMENT_THEORY = SGP/SGP4

EPOCH          = 2025-11-20T06:14:35.983680
MEAN_MOTION    = 14.16835483
ECCENTRICITY   = .00152051
INCLINATION    = 71.0009
RA_OF_ASC_NODE = 58.8828
ARG_OF_PERICENTER = 263.2698
MEAN_ANOMALY   = 127.2049

EPHEMERIS_TYPE = 0
CLASSIFICATION_TYPE = U
NORAD_CAT_ID   = 22220
ELEMENT_SET_NO = 999
REV_AT_EPOCH   = 70633
BSTAR          = -.3073682E-5
MEAN_MOTION_DOT = -.54E-6
MEAN_MOTION_DDOT = 0

CCSDS_OMM_VERS = 2.0
CREATION_DATE  = 
ORIGINATOR     = 

OBJECT_NAME    = COSMOS 2221
OBJECT_ID      = 1992-080A
CENTER_NAME    = EARTH
REF_FRAME      = TEME
TIME_SYSTEM    = UTC
MEAN_ELEMENT_THEORY = SGP/SGP4

EPOCH          = 2025-11-20T06:32:20.024736
MEAN_MOTION    = 14.95641126
ECCENTRICITY   = .00142504
INCLINATION    = 82.5065
RA_OF_ASC_NODE = 23.8264
ARG_OF_PERICENTER = 194.3327
MEAN_ANOMALY   = 165.7493

EPHEMERIS_TYPE = 0
CLASSIFICATION_TYPE = U
NORAD_CAT_ID   = 22236
ELEMENT_SET_NO = 999
REV_AT_EPOCH   = 76443
BSTAR          = .16419991E-3
MEAN_MOTION_DOT = .1853E-4
MEAN_MOTION_DDOT = 0

CCSDS_OMM_VERS = 2.0
CREATION_DATE  = 
ORIGINATOR     = 

OBJECT_NAME    = SL-16 R/B
OBJECT_ID      = 1992-093B
CENTER_NAME    = EARTH
REF_FRAME      = TEME
TIME_SYSTEM    = UTC
MEAN_ELEMENT_THEORY = SGP/SGP4

EPOCH          = 2025-11-20T04:47:58.164864
MEAN_MOTION    = 14.15428100
ECCENTRICITY   = .00022488
INCLINATION    = 71.0218
RA_OF_ASC_NODE = 234.1086
ARG_OF_PERICENTER = 139.3877
MEAN_ANOMALY   = 220.7414

EPHEMERIS_TYPE = 0
CLASSIFICATION_TYPE = U
NORAD_CAT_ID   = 22285
ELEMENT_SET_NO = 999
REV_AT_EPOCH   = 69766
BSTAR          = .25465022E-4
MEAN_MOTION_DOT = .2E-7
MEAN_MOTION_DDOT = 0

