COSMOS 2151             
1 21422U 91042A   25324.20361585  .00001428  00000+0  11371-3 0  9993
2 21422  82.4976 189.2171 0014102  71.0947 289.1805 14.99574577846788
SL-14 R/B               
1 21423U 91042B   25324.29427979  .00000502  00000+0  60682-4 0  9995
2 21423  82.4914 322.7743 0015678 237.8217 122.1477 14.81709316836873
ERS-1                   
1 21574U 91050A   25324.00529110  .00000370  00000+0  13325-3 0  9994
2 21574  98.7915 334.4903 0032269 165.9198 194.2896 14.39340039799951
ARIANE 40 R/B           
1 21610U 91050F   25324.10898175  .00000399  00000+0  13232-3 0  9994
2 21610  98.2199  15.3532 0004030  60.0013 300.1577 14.42786273803194
INTERCOSMOS 25          
1 21819U 91086A   25324.26108782  .00001467  00000+0  28758-3 0  9995
2 21819  82.6083  16.1659 1487771 352.8645   5.3166 12.11628754483436
SL-8 R/B                
1 21876U 92008B   25324.13655455  .00000137  00000+0  12494-3 0  9996
2 21876  82.9273 349.2603 0036110  81.2281 338.5656 13.75951973694350
SL-8 R/B                
1 21938U 92020B   25324.23960689  .00000088  00000+0  75662-4 0  9990
2 21938  82.9316 235.0236 0027726 242.5847 282.0914 13.75522999686087
USA 81                  
1 21949U 92023A   25324.18981075  .00000221  00000+0  74584-4 0  9992
2 21949  85.0102 194.5792 0002412  70.0221 290.1231 14.32315625 79119
COSMOS 2219             
1 22219U 92076A   25324.22952965 -.00000102  00000+0 -28987-4 0  9998
2 22219  71.0609 246.8851 0018170 358.8605   1.2473 14.14067556702901
SL-16 R/B               
1 22220U 92076B   25324.26013870 -.00000054  00000+0 -30737-5 0  9990
2 22220  71.0009  58.8828 0015205 263.2698 127.2049 14.16835483706332
COSMOS 2221             
1 22236U 92080A   25324.27245399  .00001853  00000+0  16420-3 0  9993
2 22236  82.5065  23.8264 0014250 194.3327 165.7493 14.95641126764437
SL-16 R/B               
1 22285U 92093B   25324.19997876  .00000002  00000+0  25465-4 0  9991
2 22285  71.0218 234.1086 0002248 139.3877 220.7414 14.15428100697668
